{"type":"FeatureCollection","features":[{"type":"Feature","properties":{"name":"Aksai Chin"},"geometry":{"type":"Polygon","coordinates":[[[77.8,35.495],[77.829,35.492],[77.86,35.484],[77.89,35.482],[77.915,35.494],[77.932,35.523],[77.941,35.547],[77.955,35.562],[77.985,35.563],[78.073,35.54],[78.102,35.538],[78.115,35.545],[78.129,35.583],[78.142,35.606],[78.162,35.624],[78.186,35.636],[78.229,35.647],[78.241,35.657],[78.261,35.683],[78.276,35.695],[78.293,35.701],[78.33,35.709],[78.367,35.725],[78.4,35.745],[78.435,35.761],[78.509,35.768],[78.545,35.781],[78.652,35.841],[78.665,35.853],[78.737,35.868],[78.777,35.867],[78.825,35.865],[78.971,35.887],[79.028,35.852],[79.133,35.836],[79.194,35.887],[79.184,35.941],[79.29,35.977],[79.324,35.98],[79.364,35.975],[79.4,35.962],[79.424,35.94],[79.428,35.909],[79.461,35.886],[79.489,35.879],[79.546,35.865],[79.568,35.859],[79.623,35.846],[79.716,35.817],[79.738,35.802],[79.796,35.797],[79.876,35.785],[79.919,35.822],[79.96,35.839],[80.005,35.839],[80.038,35.8],[80.058,35.75],[80.088,35.725],[80.111,35.68],[80.178,35.667],[80.244,35.639],[80.292,35.607],[80.306,35.573],[80.312,35.549],[80.316,35.532],[80.319,35.509],[80.327,35.477],[80.326,35.467],[80.309,35.463],[80.284,35.446],[80.284,35.396],[80.278,35.345],[80.255,35.313],[80.261,35.27],[80.242,35.223],[80.203,35.191],[80.188,35.151],[80.183,35.103],[80.174,35.072],[80.163,34.951],[80.117,34.884],[80.078,34.837],[80.074,34.792],[80.086,34.777],[80.066,34.737],[80.05,34.673],[80.035,34.657],[79.996,34.647],[79.938,34.657],[79.907,34.662],[79.867,34.658],[79.852,34.644],[79.845,34.623],[79.839,34.6],[79.831,34.581],[79.813,34.565],[79.794,34.559],[79.751,34.552],[79.731,34.545],[79.714,34.535],[79.702,34.52],[79.702,34.5],[79.711,34.486],[79.726,34.476],[79.737,34.463],[79.738,34.445],[79.713,34.415],[79.711,34.415],[79.67,34.407],[79.623,34.412],[79.544,34.429],[79.523,34.426],[79.51,34.412],[79.509,34.392],[79.525,34.352],[79.548,34.251],[79.552,34.21],[79.533,34.184],[79.514,34.183],[79.498,34.186],[79.488,34.182],[79.487,34.157],[79.498,34.12],[79.495,34.106],[79.476,34.089],[79.449,34.068],[79.406,34.022],[79.376,34.011],[79.132,34.026],[79.102,34.02],[79.094,34.014],[79.081,34],[79.071,33.995],[79.062,33.995],[79.039,34.002],[78.935,34.007],[78.903,33.983],[78.888,33.946],[78.898,33.907],[78.916,33.871],[78.929,33.834],[78.945,33.8],[78.976,33.769],[78.991,33.752],[78.995,33.73],[78.996,33.705],[79.011,33.658],[79.013,33.634],[79.003,33.619],[78.976,33.625],[78.945,33.634],[78.917,33.633],[78.896,33.62],[78.885,33.592],[78.887,33.567],[78.904,33.522],[78.91,33.494],[78.906,33.448],[78.908,33.424],[78.913,33.402],[78.918,33.386],[78.916,33.388],[78.824,33.461],[78.801,33.494],[78.781,33.553],[78.794,33.744],[78.787,33.808],[78.77,33.872],[78.721,33.994],[78.73,34.079],[78.806,34.123],[78.903,34.158],[78.976,34.217],[78.985,34.24],[78.988,34.263],[78.985,34.286],[78.976,34.309],[78.957,34.34],[78.951,34.349],[78.922,34.372],[78.886,34.386],[78.839,34.397],[78.802,34.415],[78.751,34.471],[78.665,34.526],[78.607,34.546],[78.379,34.579],[78.335,34.594],[78.296,34.625],[78.273,34.659],[78.211,34.848],[78.202,34.866],[78.162,34.909],[78.148,34.943],[78.139,35.019],[78.13,35.055],[78.036,35.194],[78.001,35.269],[78.01,35.347],[78.038,35.398],[78.056,35.453],[78.044,35.492],[77.986,35.494],[77.958,35.482],[77.913,35.441],[77.883,35.431],[77.857,35.437],[77.834,35.452],[77.815,35.473],[77.8,35.495]]]}},{"type":"Feature","properties":{"name":"Shaksam Valley"},"geometry":{"type":"Polygon","coordinates":[[[75.981,36.445],[76.149,36.425],[76.239,36.32],[76.319,36.33],[76.389,36.31],[76.429,36.24],[76.469,36.22],[76.568,36.19],[76.669,36.19],[76.719,36.16],[76.759,36.11],[76.779,36.04],[76.779,35.98],[76.779,35.91],[76.839,35.86],[76.939,35.84],[77.009,35.82],[77.069,35.78],[77.09,35.74],[77.129,35.73],[77.209,35.71],[77.309,35.72],[77.349,35.72],[77.421,35.64],[77.469,35.652],[77.509,35.58],[77.519,35.485],[77.52,35.477],[77.512,35.478],[77.476,35.477],[77.413,35.469],[77.384,35.472],[77.352,35.486],[77.305,35.518],[77.281,35.528],[77.251,35.531],[77.178,35.523],[77.141,35.525],[77.105,35.538],[77.092,35.548],[77.071,35.571],[77.058,35.58],[77.039,35.585],[77.018,35.585],[76.976,35.579],[76.936,35.58],[76.915,35.583],[76.896,35.59],[76.881,35.601],[76.857,35.629],[76.843,35.641],[76.825,35.648],[76.783,35.646],[76.777,35.646],[76.763,35.647],[76.745,35.655],[76.733,35.667],[76.709,35.694],[76.677,35.714],[76.604,35.736],[76.571,35.751],[76.551,35.784],[76.565,35.865],[76.555,35.898],[76.537,35.903],[76.5,35.872],[76.476,35.865],[76.454,35.865],[76.443,35.863],[76.432,35.861],[76.422,35.854],[76.41,35.837],[76.403,35.831],[76.384,35.828],[76.366,35.831],[76.349,35.831],[76.312,35.81],[76.297,35.809],[76.281,35.814],[76.26,35.818],[76.237,35.815],[76.19,35.805],[76.166,35.806],[76.138,35.827],[76.128,35.862],[76.124,35.903],[76.115,35.942],[76.09,35.978],[76.061,35.992],[75.984,35.996],[75.953,36.007],[75.922,36.032],[75.9,36.063],[75.894,36.097],[75.901,36.114],[75.915,36.124],[75.964,36.15],[75.972,36.155],[75.977,36.163],[75.977,36.174],[75.969,36.192],[75.97,36.202],[75.983,36.215],[76.002,36.222],[76.014,36.23],[76.012,36.248],[76.002,36.261],[75.977,36.287],[75.969,36.302],[75.969,36.342],[75.987,36.421],[75.981,36.445]]]}},{"type":"Feature","properties":{"name":"Gilgit-Baltistan"},"geometry":{"type":"Polygon","coordinates":[[[75.981,36.445],[75.987,36.421],[75.969,36.342],[75.969,36.302],[75.977,36.287],[76.002,36.261],[76.012,36.248],[76.014,36.23],[76.002,36.222],[75.983,36.215],[75.97,36.202],[75.969,36.192],[75.977,36.174],[75.977,36.163],[75.972,36.155],[75.964,36.15],[75.915,36.124],[75.901,36.114],[75.894,36.097],[75.9,36.063],[75.922,36.032],[75.953,36.007],[75.984,35.996],[76.061,35.992],[76.09,35.978],[76.115,35.942],[76.124,35.903],[76.128,35.862],[76.138,35.827],[76.166,35.806],[76.19,35.805],[76.237,35.815],[76.26,35.818],[76.281,35.814],[76.297,35.809],[76.312,35.81],[76.349,35.831],[76.366,35.831],[76.384,35.828],[76.403,35.831],[76.41,35.837],[76.422,35.854],[76.432,35.861],[76.443,35.863],[76.454,35.865],[76.476,35.865],[76.5,35.872],[76.537,35.903],[76.555,35.898],[76.565,35.865],[76.551,35.784],[76.571,35.751],[76.604,35.736],[76.677,35.714],[76.709,35.694],[76.733,35.667],[76.745,35.655],[76.763,35.647],[76.777,35.646],[76.913,35.378],[77.049,35.11],[77.042,35.107],[77.023,35.086],[77.027,35.062],[77.035,35.035],[77.029,35.003],[77.013,34.986],[76.953,34.947],[76.934,34.929],[76.921,34.921],[76.906,34.923],[76.88,34.937],[76.853,34.943],[76.817,34.941],[76.782,34.931],[76.758,34.915],[76.75,34.892],[76.753,34.838],[76.744,34.819],[76.653,34.747],[76.64,34.741],[76.553,34.726],[76.536,34.726],[76.52,34.731],[76.476,34.758],[76.438,34.763],[76.4,34.751],[76.262,34.685],[76.155,34.662],[76.122,34.661],[76.058,34.683],[76.023,34.677],[76.007,34.665],[75.987,34.636],[75.973,34.622],[75.966,34.619],[75.939,34.612],[75.874,34.571],[75.816,34.522],[75.796,34.508],[75.777,34.504],[75.735,34.509],[75.714,34.509],[75.656,34.497],[75.612,34.498],[75.348,34.557],[75.307,34.574],[75.267,34.598],[75.251,34.613],[75.237,34.632],[75.225,34.639],[75.225,34.64],[75.227,34.649],[75.227,34.649],[75.252,34.697],[75.252,34.697],[75.255,34.729],[75.249,34.762],[75.232,34.795],[75.208,34.822],[75.161,34.862],[75.141,34.87],[75.14,34.87],[75.122,34.867],[75.087,34.839],[75.067,34.831],[75.028,34.824],[75.005,34.817],[74.975,34.813],[74.928,34.813],[74.927,34.813],[74.866,34.829],[74.799,34.852],[74.661,34.918],[74.634,34.94],[74.613,34.972],[74.574,35.046],[74.549,35.08],[74.521,35.106],[74.489,35.12],[74.464,35.124],[74.463,35.124],[74.411,35.112],[74.351,35.094],[74.269,35.087],[74.268,35.087],[74.177,35.098],[74.175,35.098],[74.138,35.099],[74.125,35.099],[74.125,35.099],[74.125,35.099],[74.124,35.105],[74.124,35.105],[74.123,35.107],[74.119,35.111],[74.105,35.121],[74.102,35.126],[74.102,35.131],[74.103,35.135],[74.104,35.138],[74.102,35.14],[74.102,35.14],[74.1,35.141],[74.098,35.142],[74.098,35.142],[74.097,35.142],[74.079,35.142],[74.079,35.142],[74.052,35.144],[74.037,35.145],[74.036,35.145],[74.031,35.147],[74.025,35.15],[74.009,35.163],[74.006,35.165],[74.004,35.168],[74.003,35.171],[73.999,35.174],[73.995,35.175],[73.995,35.175],[73.992,35.175],[73.977,35.174],[73.968,35.172],[73.961,35.169],[73.959,35.17],[73.958,35.17],[73.958,35.17],[73.954,35.171],[73.949,35.173],[73.924,35.199],[73.915,35.202],[73.91,35.203],[73.898,35.207],[73.898,35.207],[73.888,35.208],[73.87,35.203],[73.864,35.202],[73.864,35.202],[73.863,35.203],[73.859,35.205],[73.839,35.222],[73.821,35.23],[73.813,35.233],[73.81,35.234],[73.808,35.234],[73.801,35.235],[73.776,35.235],[73.773,35.234],[73.77,35.233],[73.767,35.231],[73.746,35.214],[73.742,35.211],[73.739,35.21],[73.736,35.209],[73.732,35.209],[73.732,35.209],[73.732,35.209],[73.732,35.21],[73.728,35.212],[73.722,35.216],[73.716,35.225],[73.715,35.23],[73.715,35.234],[73.718,35.239],[73.72,35.255],[73.72,35.259],[73.718,35.264],[73.689,35.307],[73.687,35.31],[73.687,35.314],[73.687,35.318],[73.691,35.345],[73.691,35.349],[73.69,35.355],[73.69,35.357],[73.692,35.361],[73.694,35.366],[73.717,35.398],[73.723,35.408],[73.724,35.412],[73.726,35.415],[73.728,35.418],[73.743,35.428],[73.768,35.439],[73.777,35.442],[73.781,35.445],[73.784,35.447],[73.785,35.45],[73.784,35.453],[73.783,35.457],[73.782,35.461],[73.778,35.502],[73.778,35.506],[73.772,35.522],[73.772,35.522],[73.772,35.522],[73.758,35.527],[73.758,35.527],[73.63,35.543],[73.566,35.542],[73.505,35.534],[73.504,35.534],[73.504,35.534],[73.504,35.535],[73.466,35.558],[73.466,35.558],[73.465,35.558],[73.464,35.558],[73.443,35.562],[73.41,35.548],[73.409,35.548],[73.409,35.548],[73.409,35.549],[73.397,35.57],[73.395,35.575],[73.392,35.58],[73.388,35.584],[73.383,35.588],[73.382,35.588],[73.374,35.592],[73.374,35.592],[73.366,35.595],[73.366,35.595],[73.355,35.597],[73.349,35.597],[73.329,35.595],[73.325,35.596],[73.311,35.599],[73.31,35.599],[73.307,35.6],[73.307,35.6],[73.307,35.601],[73.304,35.602],[73.299,35.613],[73.297,35.617],[73.29,35.623],[73.29,35.623],[73.282,35.628],[73.252,35.645],[73.244,35.651],[73.24,35.654],[73.228,35.664],[73.135,35.715],[73.129,35.72],[73.126,35.725],[73.124,35.73],[73.123,35.737],[73.123,35.744],[73.128,35.796],[73.13,35.799],[73.133,35.802],[73.151,35.817],[73.154,35.821],[73.155,35.825],[73.153,35.828],[73.15,35.832],[73.149,35.832],[73.129,35.843],[73.12,35.848],[73.12,35.848],[73.119,35.849],[73.108,35.856],[73.094,35.868],[73.092,35.871],[73.091,35.874],[73.088,35.876],[73.088,35.876],[73.088,35.876],[73.086,35.876],[73.085,35.877],[73.081,35.873],[73.072,35.865],[73.068,35.862],[73.064,35.86],[73.06,35.858],[73.053,35.857],[73.042,35.856],[73.032,35.857],[73.016,35.861],[73.016,35.861],[73.009,35.864],[73.007,35.865],[73.001,35.869],[73,35.869],[72.986,35.875],[72.983,35.876],[72.978,35.877],[72.972,35.878],[72.872,35.874],[72.865,35.873],[72.856,35.87],[72.818,35.851],[72.815,35.848],[72.809,35.841],[72.806,35.839],[72.798,35.838],[72.792,35.838],[72.75,35.845],[72.656,35.854],[72.654,35.855],[72.557,35.889],[72.516,35.904],[72.588,36.013],[72.589,36.016],[72.588,36.019],[72.581,36.035],[72.579,36.043],[72.573,36.05],[72.541,36.073],[72.538,36.076],[72.536,36.08],[72.535,36.083],[72.531,36.091],[72.529,36.098],[72.529,36.103],[72.53,36.108],[72.532,36.112],[72.534,36.117],[72.56,36.144],[72.562,36.15],[72.561,36.156],[72.553,36.167],[72.551,36.17],[72.551,36.174],[72.554,36.189],[72.565,36.23],[72.568,36.237],[72.572,36.243],[72.578,36.25],[72.586,36.258],[72.594,36.264],[72.607,36.273],[72.622,36.277],[72.633,36.279],[72.643,36.279],[72.655,36.278],[72.681,36.269],[72.687,36.269],[72.692,36.271],[72.714,36.296],[72.719,36.3],[72.738,36.311],[72.753,36.317],[72.767,36.32],[72.774,36.323],[72.785,36.329],[72.822,36.365],[72.83,36.37],[72.838,36.374],[72.869,36.38],[72.877,36.384],[72.884,36.392],[72.887,36.397],[72.887,36.402],[72.886,36.414],[72.886,36.439],[72.889,36.453],[72.89,36.457],[72.896,36.462],[72.906,36.466],[72.926,36.468],[72.956,36.468],[72.981,36.471],[72.985,36.473],[72.988,36.476],[72.99,36.484],[72.989,36.489],[72.985,36.496],[72.982,36.5],[72.98,36.504],[72.98,36.508],[72.983,36.511],[72.989,36.514],[73.042,36.531],[73.049,36.535],[73.055,36.54],[73.063,36.549],[73.066,36.556],[73.069,36.569],[73.072,36.574],[73.085,36.59],[73.094,36.603],[73.096,36.607],[73.096,36.609],[73.093,36.618],[73.078,36.651],[73.073,36.664],[73.073,36.686],[73.072,36.691],[73.071,36.695],[73.073,36.699],[73.078,36.701],[73.097,36.703],[73.131,36.709],[73.142,36.714],[73.172,36.733],[73.177,36.735],[73.182,36.734],[73.192,36.728],[73.208,36.716],[73.208,36.715],[73.213,36.713],[73.218,36.712],[73.243,36.717],[73.271,36.718],[73.288,36.717],[73.296,36.717],[73.314,36.721],[73.416,36.752],[73.43,36.751],[73.454,36.747],[73.514,36.731],[73.52,36.731],[73.541,36.733],[73.553,36.732],[73.558,36.731],[73.565,36.728],[73.571,36.728],[73.577,36.729],[73.591,36.735],[73.595,36.735],[73.595,36.735],[73.599,36.733],[73.608,36.722],[73.614,36.716],[73.617,36.713],[73.618,36.712],[73.622,36.71],[73.628,36.71],[73.655,36.711],[73.662,36.709],[73.673,36.705],[73.679,36.704],[73.684,36.705],[73.695,36.71],[73.715,36.725],[73.721,36.727],[73.729,36.727],[73.736,36.724],[73.756,36.716],[73.762,36.716],[73.767,36.718],[73.787,36.728],[73.791,36.729],[73.802,36.728],[73.833,36.721],[73.854,36.715],[73.874,36.711],[73.879,36.712],[73.886,36.714],[73.888,36.72],[73.888,36.726],[73.887,36.73],[73.886,36.734],[73.887,36.738],[73.891,36.747],[73.892,36.752],[73.891,36.756],[73.891,36.757],[73.889,36.764],[73.887,36.771],[73.887,36.771],[73.887,36.771],[73.881,36.776],[73.869,36.785],[73.868,36.786],[73.813,36.816],[73.812,36.816],[73.799,36.828],[73.798,36.829],[73.786,36.834],[73.775,36.838],[73.738,36.843],[73.73,36.846],[73.725,36.848],[73.723,36.849],[73.72,36.851],[73.714,36.856],[73.712,36.861],[73.712,36.861],[73.712,36.862],[73.709,36.874],[73.712,36.893],[73.712,36.894],[73.773,36.892],[73.834,36.883],[73.865,36.873],[73.947,36.831],[73.977,36.825],[74.006,36.816],[74.035,36.816],[74.094,36.831],[74.104,36.841],[74.109,36.876],[74.115,36.89],[74.13,36.898],[74.146,36.902],[74.212,36.895],[74.236,36.902],[74.285,36.934],[74.368,36.977],[74.394,36.994],[74.436,37.003],[74.457,37.004],[74.477,36.999],[74.48,36.997],[74.484,36.994],[74.502,36.972],[74.521,36.958],[74.537,36.962],[74.544,36.994],[74.548,37.002],[74.549,37.009],[74.547,37.016],[74.542,37.022],[74.562,37.03],[74.626,37.043],[74.662,37.054],[74.678,37.052],[74.692,37.036],[74.719,37.016],[74.793,37.015],[74.824,36.994],[74.825,36.994],[74.853,36.959],[74.861,36.947],[74.867,36.917],[74.872,36.907],[74.886,36.911],[74.892,36.921],[74.901,36.95],[74.91,36.963],[74.925,36.971],[74.942,36.977],[74.977,36.984],[75.014,36.984],[75.1,36.994],[75.119,36.991],[75.133,36.985],[75.161,36.964],[75.195,36.949],[75.313,36.929],[75.351,36.916],[75.378,36.894],[75.394,36.864],[75.401,36.826],[75.403,36.785],[75.411,36.747],[75.432,36.723],[75.493,36.721],[75.499,36.728],[75.502,36.738],[75.508,36.748],[75.571,36.767],[75.65,36.754],[75.729,36.723],[75.791,36.688],[75.85,36.645],[75.875,36.619],[75.977,36.463],[75.977,36.462],[75.981,36.445]]]}},{"type":"Feature","properties":{"name":"Siachen Glacier"},"geometry":{"type":"Polygon","coordinates":[[[77.049,35.11],[76.913,35.378],[76.777,35.646],[76.783,35.646],[76.825,35.648],[76.843,35.641],[76.857,35.629],[76.881,35.601],[76.896,35.59],[76.915,35.583],[76.936,35.58],[76.976,35.579],[77.018,35.585],[77.039,35.585],[77.058,35.58],[77.071,35.571],[77.092,35.548],[77.105,35.538],[77.141,35.525],[77.178,35.523],[77.251,35.531],[77.281,35.528],[77.305,35.518],[77.352,35.486],[77.384,35.472],[77.413,35.469],[77.476,35.477],[77.512,35.478],[77.52,35.477],[77.661,35.458],[77.69,35.463],[77.717,35.475],[77.747,35.494],[77.76,35.498],[77.774,35.499],[77.8,35.495],[77.425,35.303],[77.049,35.11]]]}},{"type":"Feature","properties":{"name":"Azad Kashmir"},"geometry":{"type":"Polygon","coordinates":[[[75.225,34.639],[75.213,34.645],[75.176,34.645],[75.111,34.634],[75.018,34.63],[74.665,34.688],[74.412,34.764],[74.349,34.773],[74.286,34.769],[74.222,34.748],[74.147,34.702],[74.121,34.691],[73.962,34.668],[73.949,34.663],[73.919,34.643],[73.917,34.619],[73.925,34.593],[73.926,34.565],[73.911,34.545],[73.863,34.517],[73.847,34.494],[73.847,34.494],[73.846,34.456],[73.84,34.444],[73.832,34.436],[73.807,34.425],[73.796,34.419],[73.78,34.396],[73.775,34.371],[73.783,34.347],[73.804,34.327],[73.829,34.315],[73.853,34.307],[73.879,34.304],[73.907,34.307],[73.938,34.304],[73.954,34.287],[73.977,34.238],[73.991,34.219],[73.998,34.197],[73.995,34.176],[73.977,34.162],[73.917,34.135],[73.893,34.115],[73.884,34.084],[73.894,34.054],[73.916,34.028],[73.946,34.01],[73.977,34.005],[74.045,34.019],[74.065,34.018],[74.118,34.003],[74.154,34.004],[74.192,34.012],[74.228,34.013],[74.26,33.994],[74.272,33.962],[74.262,33.93],[74.24,33.901],[74.213,33.878],[74.178,33.858],[74.142,33.844],[74.035,33.829],[74.011,33.81],[73.977,33.759],[73.971,33.747],[73.966,33.735],[73.963,33.722],[73.961,33.692],[73.963,33.677],[73.968,33.662],[73.977,33.648],[74.024,33.614],[74.088,33.585],[74.142,33.549],[74.158,33.494],[74.136,33.418],[74.105,33.345],[74.096,33.328],[74.085,33.314],[74.072,33.302],[74.055,33.292],[74.018,33.279],[74.002,33.27],[73.992,33.253],[73.988,33.209],[74.002,33.178],[74.029,33.154],[74.066,33.133],[74.098,33.105],[74.154,33.04],[74.191,33.022],[74.284,33.009],[74.311,32.994],[74.322,32.972],[74.324,32.921],[74.337,32.87],[74.334,32.849],[74.323,32.831],[74.317,32.823],[73.983,32.969],[73.977,32.976],[73.96,33.001],[73.959,33.002],[73.956,33.006],[73.951,33.011],[73.943,33.018],[73.926,33.026],[73.907,33.03],[73.874,33.029],[73.86,33.027],[73.849,33.025],[73.848,33.024],[73.83,33.016],[73.829,33.015],[73.822,33.013],[73.806,33.015],[73.786,33.025],[73.773,33.031],[73.763,33.046],[73.732,33.063],[73.673,33.085],[73.64,33.103],[73.623,33.124],[73.645,33.143],[73.644,33.154],[73.65,33.162],[73.655,33.173],[73.655,33.185],[73.649,33.195],[73.641,33.201],[73.621,33.212],[73.618,33.217],[73.616,33.224],[73.615,33.23],[73.615,33.232],[73.609,33.233],[73.601,33.231],[73.6,33.23],[73.595,33.228],[73.594,33.228],[73.588,33.228],[73.584,33.228],[73.581,33.229],[73.58,33.238],[73.58,33.239],[73.583,33.239],[73.588,33.241],[73.59,33.241],[73.597,33.244],[73.6,33.247],[73.599,33.266],[73.595,33.286],[73.593,33.304],[73.598,33.315],[73.6,33.322],[73.603,33.333],[73.598,33.343],[73.587,33.356],[73.576,33.37],[73.574,33.387],[73.583,33.4],[73.594,33.412],[73.604,33.442],[73.613,33.447],[73.613,33.447],[73.621,33.448],[73.622,33.449],[73.628,33.452],[73.628,33.462],[73.626,33.47],[73.623,33.477],[73.615,33.51],[73.615,33.52],[73.618,33.526],[73.624,33.528],[73.631,33.531],[73.635,33.541],[73.633,33.557],[73.625,33.575],[73.615,33.593],[73.604,33.606],[73.576,33.626],[73.573,33.634],[73.578,33.648],[73.576,33.654],[73.577,33.663],[73.596,33.695],[73.6,33.709],[73.599,33.727],[73.596,33.746],[73.589,33.762],[73.576,33.777],[73.567,33.803],[73.583,33.877],[73.58,33.91],[73.519,34.008],[73.519,34.008],[73.519,34.008],[73.518,34.009],[73.509,34.068],[73.491,34.128],[73.49,34.129],[73.49,34.14],[73.489,34.147],[73.49,34.15],[73.491,34.181],[73.49,34.198],[73.474,34.269],[73.474,34.269],[73.46,34.282],[73.455,34.292],[73.447,34.306],[73.407,34.355],[73.4,34.376],[73.404,34.381],[73.415,34.398],[73.42,34.41],[73.425,34.428],[73.426,34.43],[73.427,34.436],[73.427,34.466],[73.427,34.47],[73.428,34.471],[73.429,34.473],[73.435,34.482],[73.437,34.485],[73.438,34.488],[73.438,34.491],[73.436,34.517],[73.437,34.522],[73.438,34.526],[73.443,34.533],[73.445,34.537],[73.446,34.54],[73.446,34.549],[73.446,34.554],[73.447,34.558],[73.45,34.563],[73.454,34.566],[73.464,34.57],[73.464,34.571],[73.494,34.575],[73.498,34.575],[73.499,34.575],[73.504,34.575],[73.525,34.571],[73.527,34.571],[73.529,34.571],[73.533,34.572],[73.534,34.572],[73.553,34.579],[73.566,34.585],[73.575,34.587],[73.583,34.588],[73.591,34.588],[73.593,34.588],[73.6,34.587],[73.605,34.585],[73.607,34.583],[73.608,34.581],[73.608,34.581],[73.61,34.576],[73.614,34.569],[73.616,34.567],[73.618,34.564],[73.623,34.564],[73.623,34.564],[73.625,34.565],[73.629,34.569],[73.639,34.585],[73.66,34.634],[73.66,34.639],[73.66,34.644],[73.658,34.649],[73.651,34.659],[73.649,34.663],[73.648,34.668],[73.649,34.672],[73.651,34.677],[73.681,34.715],[73.686,34.723],[73.694,34.745],[73.701,34.756],[73.709,34.763],[73.719,34.771],[73.74,34.785],[73.75,34.79],[73.751,34.79],[73.758,34.793],[73.777,34.792],[73.784,34.792],[73.789,34.794],[73.797,34.798],[73.797,34.798],[73.816,34.809],[73.82,34.81],[73.841,34.814],[73.884,34.811],[73.884,34.811],[73.887,34.812],[73.89,34.813],[73.89,34.813],[73.908,34.825],[73.911,34.826],[73.916,34.829],[73.924,34.834],[73.925,34.835],[73.929,34.838],[73.93,34.839],[73.93,34.839],[73.937,34.849],[73.942,34.854],[73.947,34.858],[73.948,34.858],[73.954,34.863],[73.955,34.863],[73.962,34.865],[73.978,34.867],[73.984,34.868],[73.989,34.869],[74.001,34.872],[74.012,34.876],[74.012,34.876],[74.016,34.879],[74.018,34.881],[74.018,34.881],[74.022,34.886],[74.024,34.888],[74.03,34.905],[74.034,34.915],[74.034,34.915],[74.037,34.917],[74.042,34.923],[74.042,34.923],[74.053,34.929],[74.054,34.931],[74.057,34.933],[74.061,34.942],[74.064,34.95],[74.063,34.965],[74.064,34.974],[74.067,34.982],[74.076,34.991],[74.085,35],[74.086,35],[74.092,35.003],[74.098,35.007],[74.1,35.01],[74.1,35.01],[74.101,35.014],[74.098,35.021],[74.093,35.027],[74.088,35.03],[74.076,35.034],[74.075,35.035],[74.073,35.036],[74.071,35.038],[74.07,35.039],[74.069,35.04],[74.068,35.042],[74.066,35.046],[74.066,35.05],[74.068,35.055],[74.077,35.072],[74.081,35.078],[74.081,35.078],[74.088,35.085],[74.099,35.093],[74.125,35.099],[74.138,35.099],[74.175,35.098],[74.177,35.098],[74.268,35.087],[74.269,35.087],[74.351,35.094],[74.411,35.112],[74.463,35.124],[74.464,35.124],[74.489,35.12],[74.521,35.106],[74.549,35.08],[74.574,35.046],[74.613,34.972],[74.634,34.94],[74.661,34.918],[74.799,34.852],[74.866,34.829],[74.927,34.813],[74.928,34.813],[74.975,34.813],[75.005,34.817],[75.028,34.824],[75.067,34.831],[75.087,34.839],[75.122,34.867],[75.14,34.87],[75.141,34.87],[75.161,34.862],[75.208,34.822],[75.232,34.795],[75.249,34.762],[75.255,34.729],[75.252,34.697],[75.252,34.697],[75.227,34.649],[75.227,34.649],[75.225,34.64],[75.225,34.639]]]}}]}
